[{"OBJECT_NAME":"GEO-KOMPSAT-2A","OBJECT_ID":"2018-100A","EPOCH":"2026-04-04T23:39:54.277632","MEAN_MOTION":1.00273311,"ECCENTRICITY":0.00019577,"INCLINATION":0.0527,"RA_OF_ASC_NODE":37.7483,"ARG_OF_PERICENTER":23.3348,"MEAN_ANOMALY":255.4434,"EPHEMERIS_TYPE":0,"CLASSIFICATION_TYPE":"U","NORAD_CAT_ID":43823,"ELEMENT_SET_NO":999,"REV_AT_EPOCH":2689,"BSTAR":0,"MEAN_MOTION_DOT":-3.43e-6,"MEAN_MOTION_DDOT":0},{"OBJECT_NAME":"GSAT-11","OBJECT_ID":"2018-100B","EPOCH":"2026-04-05T04:32:10.692096","MEAN_MOTION":1.00272065,"ECCENTRICITY":0.00065434,"INCLINATION":0.0718,"RA_OF_ASC_NODE":261.2415,"ARG_OF_PERICENTER":163.5818,"MEAN_ANOMALY":270.6929,"EPHEMERIS_TYPE":0,"CLASSIFICATION_TYPE":"U","NORAD_CAT_ID":43824,"ELEMENT_SET_NO":999,"REV_AT_EPOCH":2674,"BSTAR":0,"MEAN_MOTION_DOT":-7.6e-7,"MEAN_MOTION_DDOT":0},{"OBJECT_NAME":"GSAT-7A","OBJECT_ID":"2018-105A","EPOCH":"2026-04-05T02:46:35.817312","MEAN_MOTION":1.00272716,"ECCENTRICITY":0.00023509,"INCLINATION":0.0267,"RA_OF_ASC_NODE":300.0372,"ARG_OF_PERICENTER":84.813,"MEAN_ANOMALY":273.0108,"EPHEMERIS_TYPE":0,"CLASSIFICATION_TYPE":"U","NORAD_CAT_ID":43864,"ELEMENT_SET_NO":999,"REV_AT_EPOCH":2671,"BSTAR":0,"MEAN_MOTION_DOT":2.7e-7,"MEAN_MOTION_DDOT":0},{"OBJECT_NAME":"COSMOS 2533","OBJECT_ID":"2018-107A","EPOCH":"2026-04-04T04:33:49.237344","MEAN_MOTION":1.00271339,"ECCENTRICITY":4.479e-5,"INCLINATION":0.0329,"RA_OF_ASC_NODE":112.4058,"ARG_OF_PERICENTER":16.7453,"MEAN_ANOMALY":201.8351,"EPHEMERIS_TYPE":0,"CLASSIFICATION_TYPE":"U","NORAD_CAT_ID":43867,"ELEMENT_SET_NO":999,"REV_AT_EPOCH":2670,"BSTAR":0,"MEAN_MOTION_DOT":-3.9e-7,"MEAN_MOTION_DDOT":0},{"OBJECT_NAME":"TJS-3","OBJECT_ID":"2018-110A","EPOCH":"2026-04-03T16:47:09.610656","MEAN_MOTION":1.00340597,"ECCENTRICITY":0.0018142,"INCLINATION":2.3532,"RA_OF_ASC_NODE":81.3751,"ARG_OF_PERICENTER":347.472,"MEAN_ANOMALY":109.8481,"EPHEMERIS_TYPE":0,"CLASSIFICATION_TYPE":"U","NORAD_CAT_ID":43874,"ELEMENT_SET_NO":999,"REV_AT_EPOCH":2667,"BSTAR":0,"MEAN_MOTION_DOT":-2.81e-6,"MEAN_MOTION_DDOT":0},{"OBJECT_NAME":"ZHONGXING-2D","OBJECT_ID":"2019-001A","EPOCH":"2026-04-05T06:31:06.527712","MEAN_MOTION":1.00273764,"ECCENTRICITY":6.387e-5,"INCLINATION":0.0579,"RA_OF_ASC_NODE":37.8879,"ARG_OF_PERICENTER":280.1318,"MEAN_ANOMALY":103.3361,"EPHEMERIS_TYPE":0,"CLASSIFICATION_TYPE":"U","NORAD_CAT_ID":43920,"ELEMENT_SET_NO":999,"REV_AT_EPOCH":5334,"BSTAR":0,"MEAN_MOTION_DOT":-3.36e-6,"MEAN_MOTION_DDOT":0},{"OBJECT_NAME":"HELLAS-SAT 4 & SGS-1","OBJECT_ID":"2019-007A","EPOCH":"2026-04-04T23:22:38.760672","MEAN_MOTION":1.00266935,"ECCENTRICITY":0.00038284,"INCLINATION":0.0682,"RA_OF_ASC_NODE":123.8632,"ARG_OF_PERICENTER":15.9826,"MEAN_ANOMALY":83.1166,"EPHEMERIS_TYPE":0,"CLASSIFICATION_TYPE":"U","NORAD_CAT_ID":44034,"ELEMENT_SET_NO":999,"REV_AT_EPOCH":2663,"BSTAR":0,"MEAN_MOTION_DOT":1.53e-6,"MEAN_MOTION_DDOT":0},{"OBJECT_NAME":"GSAT-31","OBJECT_ID":"2019-007B","EPOCH":"2026-04-05T04:24:56.386080","MEAN_MOTION":1.00272258,"ECCENTRICITY":0.00037977,"INCLINATION":0.0172,"RA_OF_ASC_NODE":253.7936,"ARG_OF_PERICENTER":76.1207,"MEAN_ANOMALY":337.6685,"EPHEMERIS_TYPE":0,"CLASSIFICATION_TYPE":"U","NORAD_CAT_ID":44035,"ELEMENT_SET_NO":999,"REV_AT_EPOCH":2623,"BSTAR":0,"MEAN_MOTION_DOT":1.26e-6,"MEAN_MOTION_DDOT":0},{"OBJECT_NAME":"NUSANTARA SATU","OBJECT_ID":"2019-009A","EPOCH":"2026-04-04T22:02:12.821280","MEAN_MOTION":1.00272138,"ECCENTRICITY":0.00026966,"INCLINATION":0.0302,"RA_OF_ASC_NODE":143.1306,"ARG_OF_PERICENTER":314.6474,"MEAN_ANOMALY":212.004,"EPHEMERIS_TYPE":0,"CLASSIFICATION_TYPE":"U","NORAD_CAT_ID":44048,"ELEMENT_SET_NO":999,"REV_AT_EPOCH":2603,"BSTAR":0,"MEAN_MOTION_DOT":-2.34e-6,"MEAN_MOTION_DDOT":0},{"OBJECT_NAME":"ZHONGXING-6C","OBJECT_ID":"2019-012A","EPOCH":"2026-04-05T06:31:14.016000","MEAN_MOTION":1.00273516,"ECCENTRICITY":0.00109733,"INCLINATION":0.0597,"RA_OF_ASC_NODE":45.2747,"ARG_OF_PERICENTER":350.8937,"MEAN_ANOMALY":25.6231,"EPHEMERIS_TYPE":0,"CLASSIFICATION_TYPE":"U","NORAD_CAT_ID":44067,"ELEMENT_SET_NO":999,"REV_AT_EPOCH":2600,"BSTAR":0,"MEAN_MOTION_DOT":-3.34e-6,"MEAN_MOTION_DDOT":0},{"OBJECT_NAME":"WGS 10 (USA 291)","OBJECT_ID":"2019-014A","EPOCH":"2026-04-02T02:47:21.699168","MEAN_MOTION":1.00270221,"ECCENTRICITY":5.537e-5,"INCLINATION":0.0193,"RA_OF_ASC_NODE":184.3175,"ARG_OF_PERICENTER":194.2754,"MEAN_ANOMALY":274.008,"EPHEMERIS_TYPE":0,"CLASSIFICATION_TYPE":"U","NORAD_CAT_ID":44071,"ELEMENT_SET_NO":999,"REV_AT_EPOCH":2585,"BSTAR":0,"MEAN_MOTION_DOT":0,"MEAN_MOTION_DDOT":0},{"OBJECT_NAME":"TIANLIAN 2-01","OBJECT_ID":"2019-017A","EPOCH":"2026-04-05T02:50:35.433888","MEAN_MOTION":1.00272321,"ECCENTRICITY":0.00020972,"INCLINATION":0.3512,"RA_OF_ASC_NODE":82.4974,"ARG_OF_PERICENTER":254.6598,"MEAN_ANOMALY":335.9207,"EPHEMERIS_TYPE":0,"CLASSIFICATION_TYPE":"U","NORAD_CAT_ID":44076,"ELEMENT_SET_NO":999,"REV_AT_EPOCH":2591,"BSTAR":0,"MEAN_MOTION_DOT":-1.05e-6,"MEAN_MOTION_DDOT":0},{"OBJECT_NAME":"ARABSAT-6A","OBJECT_ID":"2019-021A","EPOCH":"2026-04-05T00:54:39.052800","MEAN_MOTION":1.00270433,"ECCENTRICITY":0.00024673,"INCLINATION":0.0673,"RA_OF_ASC_NODE":28.8897,"ARG_OF_PERICENTER":342.3503,"MEAN_ANOMALY":226.2309,"EPHEMERIS_TYPE":0,"CLASSIFICATION_TYPE":"U","NORAD_CAT_ID":44186,"ELEMENT_SET_NO":999,"REV_AT_EPOCH":2542,"BSTAR":0,"MEAN_MOTION_DOT":1.54e-6,"MEAN_MOTION_DDOT":0},{"OBJECT_NAME":"BEIDOU-3 IGSO-1","OBJECT_ID":"2019-023A","EPOCH":"2026-03-31T15:38:43.399680","MEAN_MOTION":1.00262964,"ECCENTRICITY":0.00251896,"INCLINATION":58.5926,"RA_OF_ASC_NODE":38.4466,"ARG_OF_PERICENTER":236.5952,"MEAN_ANOMALY":266.8923,"EPHEMERIS_TYPE":0,"CLASSIFICATION_TYPE":"U","NORAD_CAT_ID":44204,"ELEMENT_SET_NO":999,"REV_AT_EPOCH":643,"BSTAR":0,"MEAN_MOTION_DOT":-2.26e-6,"MEAN_MOTION_DDOT":0},{"OBJECT_NAME":"BEIDOU-2 G8","OBJECT_ID":"2019-027A","EPOCH":"2026-04-05T06:35:13.632576","MEAN_MOTION":1.00275522,"ECCENTRICITY":0.00115311,"INCLINATION":1.4739,"RA_OF_ASC_NODE":74.3171,"ARG_OF_PERICENTER":276.6656,"MEAN_ANOMALY":85.8988,"EPHEMERIS_TYPE":0,"CLASSIFICATION_TYPE":"U","NORAD_CAT_ID":44231,"ELEMENT_SET_NO":999,"REV_AT_EPOCH":2535,"BSTAR":0,"MEAN_MOTION_DOT":-2.45e-6,"MEAN_MOTION_DDOT":0},{"OBJECT_NAME":"YAMAL 601","OBJECT_ID":"2019-031A","EPOCH":"2026-04-04T13:01:11.795232","MEAN_MOTION":1.00272171,"ECCENTRICITY":0.00025704,"INCLINATION":0.0179,"RA_OF_ASC_NODE":206.5024,"ARG_OF_PERICENTER":176.4908,"MEAN_ANOMALY":54.1716,"EPHEMERIS_TYPE":0,"CLASSIFICATION_TYPE":"U","NORAD_CAT_ID":44307,"ELEMENT_SET_NO":999,"REV_AT_EPOCH":2517,"BSTAR":0,"MEAN_MOTION_DOT":0,"MEAN_MOTION_DDOT":0},{"OBJECT_NAME":"AT&T T-16","OBJECT_ID":"2019-034A","EPOCH":"2026-04-05T03:46:38.460576","MEAN_MOTION":1.00271556,"ECCENTRICITY":8.527e-5,"INCLINATION":0.0252,"RA_OF_ASC_NODE":104.501,"ARG_OF_PERICENTER":73.615,"MEAN_ANOMALY":331.1494,"EPHEMERIS_TYPE":0,"CLASSIFICATION_TYPE":"U","NORAD_CAT_ID":44333,"ELEMENT_SET_NO":999,"REV_AT_EPOCH":2490,"BSTAR":0,"MEAN_MOTION_DOT":-1.14e-6,"MEAN_MOTION_DDOT":0}]
