GEO-KOMPSAT-2A          
1 43823U 18100A   26094.98604488 -.00000343  00000+0  00000+0 0  9997
2 43823   0.0527  37.7483 0001957  23.3348 255.4434  1.00273311 26893
GSAT-11                 
1 43824U 18100B   26095.18901264 -.00000076  00000+0  00000+0 0  9996
2 43824   0.0718 261.2415 0006543 163.5818 270.6929  1.00272065 26747
GSAT-7A                 
1 43864U 18105A   26095.11569233  .00000027  00000+0  00000+0 0  9999
2 43864   0.0267 300.0372 0002350  84.8130 273.0108  1.00272716 26714
COSMOS 2533             
1 43867U 18107A   26094.19015321 -.00000039  00000+0  00000+0 0  9999
2 43867   0.0329 112.4058 0000447  16.7453 201.8351  1.00271339 26707
TJS-3                   
1 43874U 18110A   26093.69941679 -.00000281  00000+0  00000+0 0  9998
2 43874   2.3532  81.3751 0018142 347.4720 109.8481  1.00340597 26672
ZHONGXING-2D            
1 43920U 19001A   26095.27160333 -.00000336  00000+0  00000+0 0  9997
2 43920   0.0579  37.8879 0000638 280.1318 103.3361  1.00273764 53345
HELLAS-SAT 4 & SGS-1    
1 44034U 19007A   26094.97405973  .00000153  00000+0  00000+0 0  9994
2 44034   0.0682 123.8632 0003828  15.9826  83.1166  1.00266935 26634
GSAT-31                 
1 44035U 19007B   26095.18398595  .00000126  00000+0  00000+0 0  9990
2 44035   0.0172 253.7936 0003797  76.1207 337.6685  1.00272258 26230
NUSANTARA SATU          
1 44048U 19009A   26094.91820395 -.00000234  00000+0  00000+0 0  9995
2 44048   0.0302 143.1306 0002696 314.6474 212.0040  1.00272138 26031
ZHONGXING-6C            
1 44067U 19012A   26095.27169000 -.00000334  00000+0  00000+0 0  9990
2 44067   0.0597  45.2747 0010973 350.8937  25.6231  1.00273516 26000
WGS 10 (USA 291)        
1 44071U 19014A   26092.11622337  .00000000  00000+0  00000+0 0  9993
2 44071   0.0193 184.3175 0000553 194.2754 274.0080  1.00270221 25851
TIANLIAN 2-01           
1 44076U 19017A   26095.11846567 -.00000105  00000+0  00000+0 0  9994
2 44076   0.3512  82.4974 0002097 254.6598 335.9207  1.00272321 25919
ARABSAT-6A              
1 44186U 19021A   26095.03795200  .00000154  00000+0  00000+0 0  9992
2 44186   0.0673  28.8897 0002467 342.3503 226.2309  1.00270433 25429
BEIDOU-3 IGSO-1         
1 44204U 19023A   26090.65189120 -.00000226  00000+0  00000+0 0  9997
2 44204  58.5926  38.4466 0025189 236.5952 266.8923  1.00262964  6438
BEIDOU-2 G8             
1 44231U 19027A   26095.27446334 -.00000245  00000+0  00000+0 0  9998
2 44231   1.4739  74.3171 0011531 276.6656  85.8988  1.00275522 25357
YAMAL 601               
1 44307U 19031A   26094.54249763  .00000000  00000+0  00000+0 0  9991
2 44307   0.0179 206.5024 0002570 176.4908  54.1716  1.00272171 25175
AT&T T-16               
1 44333U 19034A   26095.15738959 -.00000114  00000+0  00000+0 0  9998
2 44333   0.0252 104.5010 0000852  73.6150 331.1494  1.00271556 24903
